OBJECT_NAME,OBJECT_ID,EPOCH,MEAN_MOTION,ECCENTRICITY,INCLINATION,RA_OF_ASC_NODE,ARG_OF_PERICENTER,MEAN_ANOMALY,EPHEMERIS_TYPE,CLASSIFICATION_TYPE,NORAD_CAT_ID,ELEMENT_SET_NO,REV_AT_EPOCH,BSTAR,MEAN_MOTION_DOT,MEAN_MOTION_DDOT
STARLINK-11636 [DTC],2025-048M,2026-05-10T04:50:51.326880,15.70947671,.000183,42.9981,309.2824,295.1342,64.9336,0,U,63194,999,6819,.16163E-2,.213315E-2,0
STARLINK-11631 [DTC],2025-048N,2026-05-09T21:43:37.602912,15.70883022,.0003151,43.0015,311.3676,262.9153,97.1356,0,U,63195,999,6814,.1386E-2,.181687E-2,0
STARLINK-32946,2025-048P,2026-05-10T04:48:26.353728,15.27579978,.0000407,42.9999,101.9475,261.5548,98.5258,0,U,63196,999,6645,.55969E-3,.15171E-3,0
STARLINK-32960,2025-048Q,2026-05-10T04:12:07.261056,15.27584243,.0002161,43.0029,98.2480,293.5361,66.5263,0,U,63197,999,6649,.3621E-3,.9717E-4,0
STARLINK-32904,2025-048R,2026-05-10T04:50:45.771360,15.27571119,.0002777,42.9992,97.5831,274.9617,85.0917,0,U,63198,999,6650,.56263E-3,.15249E-3,0
STARLINK-32931,2025-048S,2026-05-09T21:35:08.218752,15.27579461,.0000935,42.9998,99.6184,266.4663,93.6082,0,U,63199,999,6645,.52736E-3,.14278E-3,0
STARLINK-32934,2025-048T,2026-05-10T05:00:00.538848,15.27583093,.0000797,43.0009,97.6325,266.3388,93.7372,0,U,63200,999,6650,.21672E-3,.5707E-4,0
STARLINK-32938,2025-048U,2026-05-09T15:24:04.653792,15.27508074,.00024741,43.0043,101.1200,272.7201,87.3368,0,U,63201,999,6641,.54994504E-3,.14869E-3,0
STARLINK-32935,2025-048V,2026-05-10T04:28:46.269696,15.27582473,.0000337,42.9962,98.3349,102.6236,257.4653,0,U,63202,999,6649,.32375E-3,.8658E-4,0
STARLINK-32930,2025-048W,2026-05-10T04:23:12.058080,15.27601027,.0001313,42.9996,98.2983,271.3144,88.7558,0,U,63203,999,6649,.4818E-3,.13028E-3,0
QPS-SAR-9 (SUSANOO-I),2025-050A,2026-05-10T04:08:26.998080,15.02797180,.0005198,42.0207,312.2421,266.6521,93.3711,0,U,63205,999,6324,.28796E-3,.3733E-4,0
SUPERVIEW NEO-3 02,2025-051A,2026-05-10T04:34:05.311200,15.24442736,.000075,97.4513,209.6933,87.3125,272.8198,0,U,63208,999,6405,.26876E-3,.6525E-4,0
TIANYAN 23,2025-051B,2026-05-10T05:13:58.501344,15.46108071,.0005625,97.4506,216.3271,212.6487,147.4415,0,U,63209,999,6449,.51048E-3,.24961E-3,0
JINJUSAT-1B,2025-052A,2026-05-09T22:58:39.384192,15.32323888,.0002557,97.4040,26.6896,181.0890,179.0347,0,U,63210,999,6424,.35053E-3,.10867E-3,0
NUSHSAT1,2025-052B,2026-05-10T04:32:12.813216,15.34506452,.0002293,97.4018,27.3653,177.3147,182.8108,0,U,63211,999,6431,.38132E-3,.12673E-3,0
IOD-1,2025-052C,2026-05-09T23:30:20.318976,15.49474433,.0002033,97.3883,30.6689,138.4422,221.6984,0,U,63212,999,6456,.5794E-3,.31866E-3,0
TEVEL2-4,2025-052D,2026-05-09T16:37:54.135552,15.33281085,.00011737,97.3941,26.0540,182.4457,177.6780,0,U,63213,999,6421,.39678028E-3,.12689E-3,0
TEVEL2-5,2025-052E,2026-05-09T23:17:30.412896,15.33133002,.000121,97.3940,26.2896,180.6979,179.4262,0,U,63214,999,6425,.3799E-3,.12088E-3,0
TEVEL2-6,2025-052F,2026-05-10T04:15:53.545248,15.33099860,.0001286,97.3942,26.4817,188.6956,171.4264,0,U,63215,999,6428,.34812E-3,.11057E-3,0
BOTSAT-1,2025-052G,2026-05-10T05:07:38.749152,15.26541397,.0000477,97.3924,24.4456,217.0675,143.0531,0,U,63216,999,6416,.21614E-3,.5576E-4,0
TEVEL2-1,2025-052H,2026-05-10T04:39:36.370080,15.32612197,.0000754,97.3913,26.1658,214.8521,145.2672,0,U,63217,999,6427,.34181E-3,.1069E-3,0
TEVEL2-3,2025-052J,2026-05-10T04:33:42.599232,15.32659740,.0000727,97.3917,26.1793,216.1267,143.9926,0,U,63218,999,6427,.34823E-3,.10909E-3,0
TEVEL2-2,2025-052K,2026-05-10T04:40:18.701760,15.32618210,.0000751,97.3917,26.1683,220.7303,139.3883,0,U,63219,999,6427,.33945E-3,.10617E-3,0
AEROCUBE 18A,2025-052L,2026-05-10T05:08:49.229952,15.24025348,.000226,97.4006,24.1860,247.5688,112.5310,0,U,63220,999,6411,.14784E-3,.3512E-4,0
TRANSPORTER-13 OBJECT M,2025-052M,2026-05-10T04:47:16.552032,15.21655513,.0001574,97.3930,23.0228,280.7937,79.3122,0,U,63221,999,6406,.11133E-3,.2447E-4,0
AEROCUBE 18B,2025-052N,2026-05-10T04:14:39.184224,15.23918390,.0002631,97.4013,24.1308,256.7911,103.3033,0,U,63222,999,6410,.1642E-3,.3896E-4,0
DROID.002,2025-052P,2026-05-10T03:58:40.539072,15.22834581,.0002059,97.3972,23.5937,270.1779,89.9222,0,U,63223,999,6408,.1654E-3,.38E-4,0
TOMORROW-S6,2025-052R,2026-05-10T04:09:34.793568,15.22104253,.0003344,97.4049,23.6598,268.1600,91.9253,0,U,63225,999,6406,.12409E-3,.2772E-4,0
ETIHAD-SAT,2025-052S,2026-05-10T03:48:52.016832,15.21805780,.0003375,97.4002,23.3224,279.2596,80.8258,0,U,63226,999,6405,.12625E-3,.2797E-4,0
CLARITY-1,2025-052T,2026-05-10T03:50:57.615648,15.99604278,.0005281,97.4097,47.9036,129.3596,230.8151,0,U,63227,999,6560,.38748E-3,.191647E-2,.17168E-4
