STARLINK-11636 [DTC]    
1 63194U 25048M   26130.20198295  .00213315  00000+0  16163-2 0  9993
2 63194  42.9981 309.2824 0001830 295.1342  64.9336 15.70947671 68196
STARLINK-11631 [DTC]    
1 63195U 25048N   26129.90529633  .00181687  00000+0  13860-2 0  9990
2 63195  43.0015 311.3676 0003151 262.9153  97.1356 15.70883022 68140
STARLINK-32946          
1 63196U 25048P   26130.20030502  .00015171  00000+0  55969-3 0  9999
2 63196  42.9999 101.9475 0000407 261.5548  98.5258 15.27579978 66456
STARLINK-32960          
1 63197U 25048Q   26130.17508404  .00009717  00000+0  36210-3 0  9994
2 63197  43.0029  98.2480 0002161 293.5361  66.5263 15.27584243 66490
STARLINK-32904          
1 63198U 25048R   26130.20191865  .00015249  00000+0  56263-3 0  9995
2 63198  42.9992  97.5831 0002777 274.9617  85.0917 15.27571119 66502
STARLINK-32931          
1 63199U 25048S   26129.89940068  .00014278  00000+0  52736-3 0  9998
2 63199  42.9998  99.6184 0000935 266.4663  93.6082 15.27579461 66454
STARLINK-32934          
1 63200U 25048T   26130.20833957  .00005707  00000+0  21672-3 0  9998
2 63200  43.0009  97.6325 0000797 266.3388  93.7372 15.27583093 66501
STARLINK-32938          
1 63201U 25048U   26129.64172053  .00014869  00000+0  54995-3 0  9991
2 63201  43.0043 101.1200 0002474 272.7201  87.3368 15.27508074 66412
STARLINK-32935          
1 63202U 25048V   26130.18664664  .00008658  00000+0  32375-3 0  9994
2 63202  42.9962  98.3349 0000337 102.6236 257.4653 15.27582473 66497
STARLINK-32930          
1 63203U 25048W   26130.18277845  .00013028  00000+0  48180-3 0  9994
2 63203  42.9996  98.2983 0001313 271.3144  88.7558 15.27601027 66491
QPS-SAR-9 (SUSANOO-I)   
1 63205U 25050A   26130.17253470  .00003733  00000+0  28796-3 0  9999
2 63205  42.0207 312.2421 0005198 266.6521  93.3711 15.02797180 63248
SUPERVIEW NEO-3 02      
1 63208U 25051A   26130.19033925  .00006525  00000+0  26876-3 0  9995
2 63208  97.4513 209.6933 0000750  87.3125 272.8198 15.24442736 64050
TIANYAN 23              
1 63209U 25051B   26130.21803821  .00024961  00000+0  51048-3 0  9992
2 63209  97.4506 216.3271 0005625 212.6487 147.4415 15.46108071 64495
JINJUSAT-1B             
1 63210U 25052A   26129.95740028  .00010867  00000+0  35053-3 0  9991
2 63210  97.4040  26.6896 0002557 181.0890 179.0347 15.32323888 64241
NUSHSAT1                
1 63211U 25052B   26130.18903719  .00012673  00000+0  38132-3 0  9995
2 63211  97.4018  27.3653 0002293 177.3147 182.8108 15.34506452 64313
IOD-1                   
1 63212U 25052C   26129.97940184  .00031866  00000+0  57940-3 0  9991
2 63212  97.3883  30.6689 0002033 138.4422 221.6984 15.49474433 64565
TEVEL2-4                
1 63213U 25052D   26129.69298768  .00012689  00000+0  39678-3 0  9995
2 63213  97.3941  26.0540 0001173 182.4457 177.6780 15.33281085 64215
TEVEL2-5                
1 63214U 25052E   26129.97049089  .00012088  00000+0  37990-3 0  9995
2 63214  97.3940  26.2896 0001210 180.6979 179.4262 15.33133002 64256
TEVEL2-6                
1 63215U 25052F   26130.17770307  .00011057  00000+0  34812-3 0  9999
2 63215  97.3942  26.4817 0001286 188.6956 171.4264 15.33099860 64280
BOTSAT-1                
1 63216U 25052G   26130.21364293  .00005576  00000+0  21614-3 0  9993
2 63216  97.3924  24.4456 0000477 217.0675 143.0531 15.26541397 64162
TEVEL2-1                
1 63217U 25052H   26130.19417095  .00010690  00000+0  34181-3 0  9996
2 63217  97.3913  26.1658 0000754 214.8521 145.2672 15.32612197 64273
TEVEL2-3                
1 63218U 25052J   26130.19007638  .00010909  00000+0  34823-3 0  9991
2 63218  97.3917  26.1793 0000727 216.1267 143.9926 15.32659740 64272
TEVEL2-2                
1 63219U 25052K   26130.19466090  .00010617  00000+0  33945-3 0  9993
2 63219  97.3917  26.1683 0000751 220.7303 139.3883 15.32618210 64278
AEROCUBE 18A            
1 63220U 25052L   26130.21445868  .00003512  00000+0  14784-3 0  9994
2 63220  97.4006  24.1860 0002260 247.5688 112.5310 15.24025348 64111
TRANSPORTER-13 OBJECT M 
1 63221U 25052M   26130.19949713  .00002447  00000+0  11133-3 0  9991
2 63221  97.3930  23.0228 0001574 280.7937  79.3122 15.21655513 64061
AEROCUBE 18B            
1 63222U 25052N   26130.17684241  .00003896  00000+0  16420-3 0  9995
2 63222  97.4013  24.1308 0002631 256.7911 103.3033 15.23918390 64107
DROID.002               
1 63223U 25052P   26130.16574698  .00003800  00000+0  16540-3 0  9997
2 63223  97.3972  23.5937 0002059 270.1779  89.9222 15.22834581 64082
TOMORROW-S6             
1 63225U 25052R   26130.17331937  .00002772  00000+0  12409-3 0  9994
2 63225  97.4049  23.6598 0003344 268.1600  91.9253 15.22104253 64063
ETIHAD-SAT              
1 63226U 25052S   26130.15893538  .00002797  00000+0  12625-3 0  9990
2 63226  97.4002  23.3224 0003375 279.2596  80.8258 15.21805780 64050
CLARITY-1               
1 63227U 25052T   26130.16038907  .00191647  17168-4  38748-3 0  9998
2 63227  97.4097  47.9036 0005281 129.3596 230.8151 15.99604278 65606
